[Satellite]
VERSION=1.1
NAME=CRYOSAT 2
NICKNAME=CRYOSAT 2
TLE1=1 36508U 10013A   20157.75419415 -.00000029  00000-0 -78647-5 0  9998
TLE2=2 36508  92.0323 104.8815 0004826 242.9725 117.0990 14.52172466538574
STATUS=0
